start=new Date('2022-01-03T00:00:00.000Z').valueOf();
sats=[{"RCS_SIZE":"LARGE","CENTER_NAME":"EARTH","FILE":"3255248","GP_ID":"192918986","OBJECT_NAME":"STARLINK-2575","MEAN_ANOMALY":"292.5086","MEAN_ELEMENT_THEORY":"SGP4","LAUNCH_DATE":"2021-05-04","SITE":"AFETR","TLE_LINE1":"1 48396U 21038AV  22002.38670597  .00001050  00000-0  89408-4 0  9994","COUNTRY_CODE":"US","CLASSIFICATION_TYPE":"U","MEAN_MOTION_DDOT":"0.0000000000000","REV_AT_EPOCH":"3832","ARG_OF_PERICENTER":"67.6064","INCLINATION":"53.0569","MEAN_MOTION":"15.06396385","APOAPSIS":"548.279","TLE_LINE2":"2 48396  53.0569 357.9388 0001522  67.6064 292.5086 15.06396385 38326","NORAD_CAT_ID":"48396","REF_FRAME":"TEME","EPHEMERIS_TYPE":"0","TIME_SYSTEM":"UTC","PERIOD":"95.592","RA_OF_ASC_NODE":"357.9388","SEMIMAJOR_AXIS":"6925.360","OBJECT_ID":"2021-038AV","EPOCH":"2022-01-02T09:16:51.395808","DECAY_DATE":null,"BSTAR":"0.00008940800000","MEAN_MOTION_DOT":"0.00001050","ECCENTRICITY":"0.00015220","ELEMENT_SET_NO":"999","OBJECT_TYPE":"PAYLOAD","PERIAPSIS":"546.171"},{"OBJECT_TYPE":"PAYLOAD","PERIAPSIS":"546.064","ELEMENT_SET_NO":"999","MEAN_MOTION_DOT":"0.00001078","BSTAR":"0.00009126100000","ECCENTRICITY":"0.00016820","DECAY_DATE":null,"EPOCH":"2022-01-02T09:11:33.110304","OBJECT_ID":"2021-038AW","RA_OF_ASC_NODE":"357.9709","PERIOD":"95.592","SEMIMAJOR_AXIS":"6925.364","TIME_SYSTEM":"UTC","EPHEMERIS_TYPE":"0","REF_FRAME":"TEME","NORAD_CAT_ID":"48397","TLE_LINE2":"2 48397  53.0549 357.9709 0001682  67.8867 292.2300 15.06394973 38329","APOAPSIS":"548.394","INCLINATION":"53.0549","MEAN_MOTION":"15.06394973","ARG_OF_PERICENTER":"67.8867","REV_AT_EPOCH":"3832","MEAN_MOTION_DDOT":"0.0000000000000","CLASSIFICATION_TYPE":"U","COUNTRY_CODE":"US","TLE_LINE1":"1 48397U 21038AW  22002.38302211  .00001078  00000-0  91261-4 0  9990","SITE":"AFETR","LAUNCH_DATE":"2021-05-04","MEAN_ELEMENT_THEORY":"SGP4","MEAN_ANOMALY":"292.2300","OBJECT_NAME":"STARLINK-2590","GP_ID":"192918737","FILE":"3255248","CENTER_NAME":"EARTH","RCS_SIZE":"LARGE"},{"OBJECT_ID":"2021-038AX","TIME_SYSTEM":"UTC","RA_OF_ASC_NODE":"357.9790","PERIOD":"95.592","SEMIMAJOR_AXIS":"6925.362","DECAY_DATE":null,"EPOCH":"2022-01-02T09:06:14.486976","EPHEMERIS_TYPE":"0","NORAD_CAT_ID":"48398","REF_FRAME":"TEME","ELEMENT_SET_NO":"999","OBJECT_TYPE":"PAYLOAD","PERIAPSIS":"546.170","ECCENTRICITY":"0.00015260","MEAN_MOTION_DOT":"0.00002237","BSTAR":"0.00016903000000","MEAN_ELEMENT_THEORY":"SGP4","MEAN_ANOMALY":"300.9715","LAUNCH_DATE":"2021-05-04","TLE_LINE1":"1 48398U 21038AX  22002.37933434  .00002237  00000-0  16903-3 0  9994","SITE":"AFETR","CENTER_NAME":"EARTH","RCS_SIZE":"LARGE","OBJECT_NAME":"STARLINK-2588","GP_ID":"192919988","FILE":"3255248","MEAN_MOTION":"15.06395700","INCLINATION":"53.0568","TLE_LINE2":"2 48398  53.0568 357.9790 0001526  59.1424 300.9715 15.06395700 38327","APOAPSIS":"548.284","CLASSIFICATION_TYPE":"U","COUNTRY_CODE":"US","REV_AT_EPOCH":"3832","ARG_OF_PERICENTER":"59.1424","MEAN_MOTION_DDOT":"0.0000000000000"},{"RCS_SIZE":"LARGE","CENTER_NAME":"EARTH","FILE":"3255248","GP_ID":"192919739","OBJECT_NAME":"STARLINK-2587","MEAN_ELEMENT_THEORY":"SGP4","MEAN_ANOMALY":"292.1049","LAUNCH_DATE":"2021-05-04","SITE":"AFETR","TLE_LINE1":"1 48399U 21038AY  22002.24296172  .00000640  00000-0  61859-4 0  9999","COUNTRY_CODE":"US","CLASSIFICATION_TYPE":"U","MEAN_MOTION_DDOT":"0.0000000000000","REV_AT_EPOCH":"3767","ARG_OF_PERICENTER":"68.0132","MEAN_MOTION":"15.06391122","INCLINATION":"53.0550","APOAPSIS":"548.491","TLE_LINE2":"2 48399  53.0550 358.6009 0001805  68.0132 292.1049 15.06391122 37678","NORAD_CAT_ID":"48399","REF_FRAME":"TEME","EPHEMERIS_TYPE":"0","TIME_SYSTEM":"UTC","RA_OF_ASC_NODE":"358.6009","PERIOD":"95.593","SEMIMAJOR_AXIS":"6925.376","OBJECT_ID":"2021-038AY","EPOCH":"2022-01-02T05:49:51.892608","DECAY_DATE":null,"BSTAR":"0.00006185900000","MEAN_MOTION_DOT":"0.00000640","ECCENTRICITY":"0.00018050","ELEMENT_SET_NO":"999","OBJECT_TYPE":"PAYLOAD","PERIAPSIS":"545.991"},{"CENTER_NAME":"EARTH","RCS_SIZE":"LARGE","OBJECT_NAME":"STARLINK-2576","GP_ID":"192918487","FILE":"3255248","MEAN_ELEMENT_THEORY":"SGP4","MEAN_ANOMALY":"292.5166","LAUNCH_DATE":"2021-05-04","TLE_LINE1":"1 48400U 21038AZ  22002.30561265  .00004454  00000-0  31763-3 0  9994","SITE":"AFETR","CLASSIFICATION_TYPE":"U","COUNTRY_CODE":"US","REV_AT_EPOCH":"3709","ARG_OF_PERICENTER":"67.5976","MEAN_MOTION_DDOT":"0.0000000000000","INCLINATION":"53.0566","MEAN_MOTION":"15.06408136","TLE_LINE2":"2 48400  53.0566 358.3149 0001443  67.5976 292.5166 15.06408136 37092","APOAPSIS":"548.188","EPHEMERIS_TYPE":"0","NORAD_CAT_ID":"48400","REF_FRAME":"TEME","OBJECT_ID":"2021-038AZ","TIME_SYSTEM":"UTC","SEMIMAJOR_AXIS":"6925.324","PERIOD":"95.592","RA_OF_ASC_NODE":"358.3149","DECAY_DATE":null,"EPOCH":"2022-01-02T07:20:04.932960","MEAN_MOTION_DOT":"0.00004454","BSTAR":"0.00031763000000","ECCENTRICITY":"0.00014430","ELEMENT_SET_NO":"999","PERIAPSIS":"546.189","OBJECT_TYPE":"PAYLOAD"},{"REV_AT_EPOCH":"3706","ARG_OF_PERICENTER":"66.4304","MEAN_MOTION_DDOT":"0.0000000000000","CLASSIFICATION_TYPE":"U","COUNTRY_CODE":"US","TLE_LINE2":"2 48401  53.0567 359.0449 0001553  66.4304 293.6848 15.06395043 37068","APOAPSIS":"548.304","INCLINATION":"53.0567","MEAN_MOTION":"15.06395043","OBJECT_NAME":"STARLINK-2571","GP_ID":"192919237","FILE":"3255248","CENTER_NAME":"EARTH","RCS_SIZE":"LARGE","TLE_LINE1":"1 48401U 21038BA  22002.14248914  .00001258  00000-0  10336-3 0  9992","SITE":"AFETR","MEAN_ELEMENT_THEORY":"SGP4","MEAN_ANOMALY":"293.6848","LAUNCH_DATE":"2021-05-04","ECCENTRICITY":"0.00015530","MEAN_MOTION_DOT":"0.00001258","BSTAR":"0.00010336000000","OBJECT_TYPE":"PAYLOAD","PERIAPSIS":"546.153","ELEMENT_SET_NO":"999","EPHEMERIS_TYPE":"0","NORAD_CAT_ID":"48401","REF_FRAME":"TEME","DECAY_DATE":null,"EPOCH":"2022-01-02T03:25:11.061696","OBJECT_ID":"2021-038BA","TIME_SYSTEM":"UTC","SEMIMAJOR_AXIS":"6925.364","PERIOD":"95.592","RA_OF_ASC_NODE":"359.0449"},{"FILE":"3255249","GP_ID":"192943479","OBJECT_NAME":"STARLINK-2560","RCS_SIZE":"LARGE","CENTER_NAME":"EARTH","SITE":"AFETR","TLE_LINE1":"1 48402U 21038BB  22002.76635708  .00002408  00000-0  18051-3 0  9992","LAUNCH_DATE":"2021-05-04","MEAN_ANOMALY":"300.0094","MEAN_ELEMENT_THEORY":"SGP4","MEAN_MOTION_DDOT":"0.0000000000000","ARG_OF_PERICENTER":"60.1037","REV_AT_EPOCH":"3716","COUNTRY_CODE":"US","CLASSIFICATION_TYPE":"U","APOAPSIS":"548.219","TLE_LINE2":"2 48402  53.0556 356.2519 0001433  60.1037 300.0094 15.06395822 37167","MEAN_MOTION":"15.06395822","INCLINATION":"53.0556","REF_FRAME":"TEME","NORAD_CAT_ID":"48402","EPHEMERIS_TYPE":"0","EPOCH":"2022-01-02T18:23:33.251712","DECAY_DATE":null,"PERIOD":"95.592","RA_OF_ASC_NODE":"356.2519","SEMIMAJOR_AXIS":"6925.361","TIME_SYSTEM":"UTC","OBJECT_ID":"2021-038BB","BSTAR":"0.00018051000000","MEAN_MOTION_DOT":"0.00002408","ECCENTRICITY":"0.00014330","PERIAPSIS":"546.234","OBJECT_TYPE":"PAYLOAD","ELEMENT_SET_NO":"999"},{"CENTER_NAME":"EARTH","RCS_SIZE":"LARGE","OBJECT_NAME":"STARLINK-2561","GP_ID":"192920239","FILE":"3255248","LAUNCH_DATE":"2021-05-04","MEAN_ELEMENT_THEORY":"SGP4","MEAN_ANOMALY":"299.0153","TLE_LINE1":"1 48403U 21038BC  22002.16554676  .00002372  00000-0  17811-3 0  9994","SITE":"AFETR","CLASSIFICATION_TYPE":"U","COUNTRY_CODE":"US","ARG_OF_PERICENTER":"61.0988","REV_AT_EPOCH":"3707","MEAN_MOTION_DDOT":"0.0000000000000","MEAN_MOTION":"15.06399978","INCLINATION":"53.0565","TLE_LINE2":"2 48403  53.0565 358.9317 0001522  61.0988 299.0153 15.06399978 37076","APOAPSIS":"548.268","EPHEMERIS_TYPE":"0","REF_FRAME":"TEME","NORAD_CAT_ID":"48403","OBJECT_ID":"2021-038BC","PERIOD":"95.592","SEMIMAJOR_AXIS":"6925.349","RA_OF_ASC_NODE":"358.9317","TIME_SYSTEM":"UTC","DECAY_DATE":null,"EPOCH":"2022-01-02T03:58:23.240064","MEAN_MOTION_DOT":"0.00002372","ECCENTRICITY":"0.00015220","BSTAR":"0.00017811000000","ELEMENT_SET_NO":"999","OBJECT_TYPE":"PAYLOAD","PERIAPSIS":"546.160"},{"CENTER_NAME":"EARTH","RCS_SIZE":"LARGE","OBJECT_NAME":"STARLINK-2593","FILE":"3255248","GP_ID":"192918987","LAUNCH_DATE":"2021-05-04","MEAN_ELEMENT_THEORY":"SGP4","MEAN_ANOMALY":"296.5777","TLE_LINE1":"1 48404U 21038BD  22002.42725978  .00000767  00000-0  70396-4 0  9993","SITE":"AFETR","CLASSIFICATION_TYPE":"U","COUNTRY_CODE":"US","ARG_OF_PERICENTER":"63.5394","REV_AT_EPOCH":"3711","MEAN_MOTION_DDOT":"0.0000000000000","MEAN_MOTION":"15.06391503","INCLINATION":"53.0557","TLE_LINE2":"2 48404  53.0557 357.7732 0001771  63.5394 296.5777 15.06391503 37115","APOAPSIS":"548.466","EPHEMERIS_TYPE":"0","REF_FRAME":"TEME","NORAD_CAT_ID":"48404","OBJECT_ID":"2021-038BD","RA_OF_ASC_NODE":"357.7732","PERIOD":"95.593","SEMIMAJOR_AXIS":"6925.375","TIME_SYSTEM":"UTC","DECAY_DATE":null,"EPOCH":"2022-01-02T10:15:15.244992","BSTAR":"0.00007039600000","MEAN_MOTION_DOT":"0.00000767","ECCENTRICITY":"0.00017710","ELEMENT_SET_NO":"999","PERIAPSIS":"546.013","OBJECT_TYPE":"PAYLOAD"},{"REF_FRAME":"TEME","NORAD_CAT_ID":"48405","EPHEMERIS_TYPE":"0","EPOCH":"2022-01-02T10:09:55.931328","DECAY_DATE":null,"RA_OF_ASC_NODE":"357.7899","PERIOD":"95.592","SEMIMAJOR_AXIS":"6925.359","TIME_SYSTEM":"UTC","OBJECT_ID":"2021-038BE","ECCENTRICITY":"0.00014620","MEAN_MOTION_DOT":"0.00002410","BSTAR":"0.00018062000000","PERIAPSIS":"546.211","OBJECT_TYPE":"PAYLOAD","ELEMENT_SET_NO":"999","GP_ID":"192918738","FILE":"3255248","OBJECT_NAME":"STARLINK-2570","RCS_SIZE":"LARGE","CENTER_NAME":"EARTH","SITE":"AFETR","TLE_LINE1":"1 48405U 21038BE  22002.42356402  .00002410  00000-0  18062-3 0  9994","LAUNCH_DATE":"2021-05-04","MEAN_ELEMENT_THEORY":"SGP4","MEAN_ANOMALY":"289.6506","MEAN_MOTION_DDOT":"0.0000000000000","ARG_OF_PERICENTER":"70.4641","REV_AT_EPOCH":"3711","COUNTRY_CODE":"US","CLASSIFICATION_TYPE":"U","APOAPSIS":"548.236","TLE_LINE2":"2 48405  53.0576 357.7899 0001462  70.4641 289.6506 15.06396667 37119","MEAN_MOTION":"15.06396667","INCLINATION":"53.0576"}];
